ONEWEB-0291             
1 49081U 21075G   26189.19759928 -.00000009  00000+0 -56084-4 0  9990
2 49081  87.9140   1.6818 0002216  86.5163 273.6222 13.17646507236372
ONEWEB-0293             
1 49082U 21075H   26189.45071486  .00000095  00000+0  21144-3 0  9997
2 49082  87.9138   1.6344 0002014  93.5415 266.5947 13.17649888236435
ONEWEB-0294             
1 49083U 21075J   26189.37194633 -.00000072  00000+0 -23664-3 0  9995
2 49083  87.8963 346.4463 0002132  97.4801 262.6570 13.12441627237353
ONEWEB-0295             
1 49084U 21075K   26189.44987730  .00000041  00000+0  73000-4 0  9996
2 49084  87.9136   1.6384 0002089  85.5042 274.6328 13.17649504236391
ONEWEB-0296             
1 49085U 21075L   26189.19914985  .00000345  00000+0  92476-3 0  9995
2 49085  87.8968 346.4889 0002127  89.6994 270.4378 13.12441789237332
ONEWEB-0297             
1 49086U 21075M   26189.38210521 -.00000330  00000+0 -95326-3 0  9995
2 49086  87.8952 346.4606 0001899  91.0551 269.0795 13.12442289237966
ONEWEB-0298             
1 49087U 21075N   26189.45424747 -.00000004  00000+0 -42296-4 0  9998
2 49087  87.9137   1.6361 0001762  88.8813 271.2520 13.17648674236427
ONEWEB-0299             
1 49088U 21075P   26189.45577487  .00000067  00000+0  13818-3 0  9993
2 49088  87.9151   1.6177 0001914  85.7003 274.4347 13.17647391236400
ONEWEB-0300             
1 49089U 21075Q   26189.37448337 -.00000172  00000+0 -51346-3 0  9993
2 49089  87.8966 346.4435 0001510  89.4532 270.6769 13.12441572237989
ONEWEB-0301             
1 49090U 21075R   26189.43463159  .00000352  00000+0  94236-3 0  9994
2 49090  87.8962 346.4295 0001497  95.6044 264.5255 13.12441811237351
ONEWEB-0302             
1 49091U 21075S   26189.42107971  .00000429  00000+0  11564-2 0  9998
2 49091  87.8961 346.4450 0002166  96.1809 263.9567 13.12441861237335
ONEWEB-0304             
1 49092U 21075T   26189.43045939 -.00000172  00000+0 -47513-3 0  9996
2 49092  87.9138   1.6437 0001965  87.0671 273.0685 13.17648257236379
ONEWEB-0305             
1 49093U 21075U   26189.42371137 -.00000188  00000+0 -51662-3 0  9995
2 49093  87.9147   1.6306 0002078  80.3649 279.7718 13.17649107236401
ONEWEB-0308             
1 49094U 21075V   26189.41429882  .00000283  00000+0  75073-3 0  9992
2 49094  87.8963 346.4382 0001852  94.7199 265.4141 13.12443067237347
ONEWEB-0309             
1 49095U 21075W   26189.42709211  .00000065  00000+0  13299-3 0  9991
2 49095  87.9137   1.6368 0002346  95.9447 264.1952 13.17650266236378
ONEWEB-0310             
1 49096U 21075X   26189.42955082  .00000490  00000+0  13264-2 0  9994
2 49096  87.8954 346.4549 0001854  95.4106 264.7234 13.12442792237970
