{"fetched_at":"2026-07-08T17:59:25.198Z","source":"https://celestrak.org/NORAD/elements/gp.php?GROUP=oneweb&FORMAT=JSON","constellation":"oneweb","records":[{"OBJECT_NAME":"ONEWEB-0291","OBJECT_ID":"2021-075G","EPOCH":"2026-07-08T04:44:32.577792","CLASSIFICATION_TYPE":"U","MEAN_MOTION":13.17646507,"ECCENTRICITY":0.0002216,"INCLINATION":87.914,"RA_OF_ASC_NODE":1.6818,"ARG_OF_PERICENTER":86.5163,"MEAN_ANOMALY":273.6222,"EPHEMERIS_TYPE":0,"NORAD_CAT_ID":49081,"ELEMENT_SET_NO":999,"REV_AT_EPOCH":23637,"BSTAR":-0.000056084,"MEAN_MOTION_DOT":-9e-8,"MEAN_MOTION_DDOT":0},{"OBJECT_NAME":"ONEWEB-0293","OBJECT_ID":"2021-075H","EPOCH":"2026-07-08T10:49:01.763904","CLASSIFICATION_TYPE":"U","MEAN_MOTION":13.17649888,"ECCENTRICITY":0.0002014,"INCLINATION":87.9138,"RA_OF_ASC_NODE":1.6344,"ARG_OF_PERICENTER":93.5415,"MEAN_ANOMALY":266.5947,"EPHEMERIS_TYPE":0,"NORAD_CAT_ID":49082,"ELEMENT_SET_NO":999,"REV_AT_EPOCH":23643,"BSTAR":0.00021144,"MEAN_MOTION_DOT":9.5e-7,"MEAN_MOTION_DDOT":0},{"OBJECT_NAME":"ONEWEB-0294","OBJECT_ID":"2021-075J","EPOCH":"2026-07-08T08:55:36.162912","CLASSIFICATION_TYPE":"U","MEAN_MOTION":13.12441627,"ECCENTRICITY":0.0002132,"INCLINATION":87.8963,"RA_OF_ASC_NODE":346.4463,"ARG_OF_PERICENTER":97.4801,"MEAN_ANOMALY":262.657,"EPHEMERIS_TYPE":0,"NORAD_CAT_ID":49083,"ELEMENT_SET_NO":999,"REV_AT_EPOCH":23735,"BSTAR":-0.00023664,"MEAN_MOTION_DOT":-7.2e-7,"MEAN_MOTION_DDOT":0},{"OBJECT_NAME":"ONEWEB-0295","OBJECT_ID":"2021-075K","EPOCH":"2026-07-08T10:47:49.398720","CLASSIFICATION_TYPE":"U","MEAN_MOTION":13.17649504,"ECCENTRICITY":0.0002089,"INCLINATION":87.9136,"RA_OF_ASC_NODE":1.6384,"ARG_OF_PERICENTER":85.5042,"MEAN_ANOMALY":274.6328,"EPHEMERIS_TYPE":0,"NORAD_CAT_ID":49084,"ELEMENT_SET_NO":999,"REV_AT_EPOCH":23639,"BSTAR":0.000073,"MEAN_MOTION_DOT":4.1e-7,"MEAN_MOTION_DDOT":0},{"OBJECT_NAME":"ONEWEB-0296","OBJECT_ID":"2021-075L","EPOCH":"2026-07-08T04:46:46.547040","CLASSIFICATION_TYPE":"U","MEAN_MOTION":13.12441789,"ECCENTRICITY":0.0002127,"INCLINATION":87.8968,"RA_OF_ASC_NODE":346.4889,"ARG_OF_PERICENTER":89.6994,"MEAN_ANOMALY":270.4378,"EPHEMERIS_TYPE":0,"NORAD_CAT_ID":49085,"ELEMENT_SET_NO":999,"REV_AT_EPOCH":23733,"BSTAR":0.00092476,"MEAN_MOTION_DOT":0.00000345,"MEAN_MOTION_DDOT":0},{"OBJECT_NAME":"ONEWEB-0297","OBJECT_ID":"2021-075M","EPOCH":"2026-07-08T09:10:13.890144","CLASSIFICATION_TYPE":"U","MEAN_MOTION":13.12442289,"ECCENTRICITY":0.0001899,"INCLINATION":87.8952,"RA_OF_ASC_NODE":346.4606,"ARG_OF_PERICENTER":91.0551,"MEAN_ANOMALY":269.0795,"EPHEMERIS_TYPE":0,"NORAD_CAT_ID":49086,"ELEMENT_SET_NO":999,"REV_AT_EPOCH":23796,"BSTAR":-0.00095326,"MEAN_MOTION_DOT":-0.0000033,"MEAN_MOTION_DDOT":0},{"OBJECT_NAME":"ONEWEB-0298","OBJECT_ID":"2021-075N","EPOCH":"2026-07-08T10:54:06.981408","CLASSIFICATION_TYPE":"U","MEAN_MOTION":13.17648674,"ECCENTRICITY":0.0001762,"INCLINATION":87.9137,"RA_OF_ASC_NODE":1.6361,"ARG_OF_PERICENTER":88.8813,"MEAN_ANOMALY":271.252,"EPHEMERIS_TYPE":0,"NORAD_CAT_ID":49087,"ELEMENT_SET_NO":999,"REV_AT_EPOCH":23642,"BSTAR":-0.000042296,"MEAN_MOTION_DOT":-4e-8,"MEAN_MOTION_DDOT":0},{"OBJECT_NAME":"ONEWEB-0299","OBJECT_ID":"2021-075P","EPOCH":"2026-07-08T10:56:18.948768","CLASSIFICATION_TYPE":"U","MEAN_MOTION":13.17647391,"ECCENTRICITY":0.0001914,"INCLINATION":87.9151,"RA_OF_ASC_NODE":1.6177,"ARG_OF_PERICENTER":85.7003,"MEAN_ANOMALY":274.4347,"EPHEMERIS_TYPE":0,"NORAD_CAT_ID":49088,"ELEMENT_SET_NO":999,"REV_AT_EPOCH":23640,"BSTAR":0.00013818,"MEAN_MOTION_DOT":6.7e-7,"MEAN_MOTION_DDOT":0},{"OBJECT_NAME":"ONEWEB-0300","OBJECT_ID":"2021-075Q","EPOCH":"2026-07-08T08:59:15.363168","CLASSIFICATION_TYPE":"U","MEAN_MOTION":13.12441572,"ECCENTRICITY":0.000151,"INCLINATION":87.8966,"RA_OF_ASC_NODE":346.4435,"ARG_OF_PERICENTER":89.4532,"MEAN_ANOMALY":270.6769,"EPHEMERIS_TYPE":0,"NORAD_CAT_ID":49089,"ELEMENT_SET_NO":999,"REV_AT_EPOCH":23798,"BSTAR":-0.00051346,"MEAN_MOTION_DOT":-0.00000172,"MEAN_MOTION_DDOT":0},{"OBJECT_NAME":"ONEWEB-0301","OBJECT_ID":"2021-075R","EPOCH":"2026-07-08T10:25:52.169376","CLASSIFICATION_TYPE":"U","MEAN_MOTION":13.12441811,"ECCENTRICITY":0.0001497,"INCLINATION":87.8962,"RA_OF_ASC_NODE":346.4295,"ARG_OF_PERICENTER":95.6044,"MEAN_ANOMALY":264.5255,"EPHEMERIS_TYPE":0,"NORAD_CAT_ID":49090,"ELEMENT_SET_NO":999,"REV_AT_EPOCH":23735,"BSTAR":0.00094236,"MEAN_MOTION_DOT":0.00000352,"MEAN_MOTION_DDOT":0},{"OBJECT_NAME":"ONEWEB-0302","OBJECT_ID":"2021-075S","EPOCH":"2026-07-08T10:06:21.286944","CLASSIFICATION_TYPE":"U","MEAN_MOTION":13.12441861,"ECCENTRICITY":0.0002166,"INCLINATION":87.8961,"RA_OF_ASC_NODE":346.445,"ARG_OF_PERICENTER":96.1809,"MEAN_ANOMALY":263.9567,"EPHEMERIS_TYPE":0,"NORAD_CAT_ID":49091,"ELEMENT_SET_NO":999,"REV_AT_EPOCH":23733,"BSTAR":0.0011564,"MEAN_MOTION_DOT":0.00000429,"MEAN_MOTION_DDOT":0},{"OBJECT_NAME":"ONEWEB-0304","OBJECT_ID":"2021-075T","EPOCH":"2026-07-08T10:19:51.691296","CLASSIFICATION_TYPE":"U","MEAN_MOTION":13.17648257,"ECCENTRICITY":0.0001965,"INCLINATION":87.9138,"RA_OF_ASC_NODE":1.6437,"ARG_OF_PERICENTER":87.0671,"MEAN_ANOMALY":273.0685,"EPHEMERIS_TYPE":0,"NORAD_CAT_ID":49092,"ELEMENT_SET_NO":999,"REV_AT_EPOCH":23637,"BSTAR":-0.00047513,"MEAN_MOTION_DOT":-0.00000172,"MEAN_MOTION_DDOT":0},{"OBJECT_NAME":"ONEWEB-0305","OBJECT_ID":"2021-075U","EPOCH":"2026-07-08T10:10:08.662368","CLASSIFICATION_TYPE":"U","MEAN_MOTION":13.17649107,"ECCENTRICITY":0.0002078,"INCLINATION":87.9147,"RA_OF_ASC_NODE":1.6306,"ARG_OF_PERICENTER":80.3649,"MEAN_ANOMALY":279.7718,"EPHEMERIS_TYPE":0,"NORAD_CAT_ID":49093,"ELEMENT_SET_NO":999,"REV_AT_EPOCH":23640,"BSTAR":-0.00051662,"MEAN_MOTION_DOT":-0.00000188,"MEAN_MOTION_DDOT":0},{"OBJECT_NAME":"ONEWEB-0308","OBJECT_ID":"2021-075V","EPOCH":"2026-07-08T09:56:35.418048","CLASSIFICATION_TYPE":"U","MEAN_MOTION":13.12443067,"ECCENTRICITY":0.0001852,"INCLINATION":87.8963,"RA_OF_ASC_NODE":346.4382,"ARG_OF_PERICENTER":94.7199,"MEAN_ANOMALY":265.4141,"EPHEMERIS_TYPE":0,"NORAD_CAT_ID":49094,"ELEMENT_SET_NO":999,"REV_AT_EPOCH":23734,"BSTAR":0.00075073,"MEAN_MOTION_DOT":0.00000283,"MEAN_MOTION_DDOT":0},{"OBJECT_NAME":"ONEWEB-0309","OBJECT_ID":"2021-075W","EPOCH":"2026-07-08T10:15:00.758304","CLASSIFICATION_TYPE":"U","MEAN_MOTION":13.17650266,"ECCENTRICITY":0.0002346,"INCLINATION":87.9137,"RA_OF_ASC_NODE":1.6368,"ARG_OF_PERICENTER":95.9447,"MEAN_ANOMALY":264.1952,"EPHEMERIS_TYPE":0,"NORAD_CAT_ID":49095,"ELEMENT_SET_NO":999,"REV_AT_EPOCH":23637,"BSTAR":0.00013299,"MEAN_MOTION_DOT":6.5e-7,"MEAN_MOTION_DDOT":0},{"OBJECT_NAME":"ONEWEB-0310","OBJECT_ID":"2021-075X","EPOCH":"2026-07-08T10:18:33.190848","CLASSIFICATION_TYPE":"U","MEAN_MOTION":13.12442792,"ECCENTRICITY":0.0001854,"INCLINATION":87.8954,"RA_OF_ASC_NODE":346.4549,"ARG_OF_PERICENTER":95.4106,"MEAN_ANOMALY":264.7234,"EPHEMERIS_TYPE":0,"NORAD_CAT_ID":49096,"ELEMENT_SET_NO":999,"REV_AT_EPOCH":23797,"BSTAR":0.0013264,"MEAN_MOTION_DOT":0.0000049,"MEAN_MOTION_DDOT":0}]}
